{
    "links": {
        "self": "http://www.neowsapp.com/rest/v1/neo/3836096?api_key=iIulBulltgU6a56xZRHN4H3l9WmuAYTsLGpBGhQ2"
    },
    "id": "3836096",
    "neo_reference_id": "3836096",
    "name": "(2018 VU3)",
    "designation": "2018 VU3",
    "nasa_jpl_url": "http://ssd.jpl.nasa.gov/sbdb.cgi?sstr=3836096",
    "absolute_magnitude_h": 25.2,
    "estimated_diameter": {
        "kilometers": {
            "estimated_diameter_min": 0.0242412481,
            "estimated_diameter_max": 0.0542050786
        },
        "meters": {
            "estimated_diameter_min": 24.2412481101,
            "estimated_diameter_max": 54.2050786336
        },
        "miles": {
            "estimated_diameter_min": 0.0150628086,
            "estimated_diameter_max": 0.0336814639
        },
        "feet": {
            "estimated_diameter_min": 79.5316564495,
            "estimated_diameter_max": 177.8381901842
        }
    },
    "is_potentially_hazardous_asteroid": false,
    "close_approach_data": [
        {
            "close_approach_date": "2018-10-25",
            "close_approach_date_full": "2018-Oct-25 06:44",
            "epoch_date_close_approach": 1540449840000,
            "relative_velocity": {
                "kilometers_per_second": "7.0187854828",
                "kilometers_per_hour": "25267.6277380281",
                "miles_per_hour": "15700.3212464431"
            },
            "miss_distance": {
                "astronomical": "0.0569865887",
                "lunar": "22.1677830043",
                "kilometers": "8525072.288086069",
                "miles": "5297234.2837989922"
            },
            "orbiting_body": "Earth"
        }
    ],
    "orbital_data": {
        "orbit_id": "2",
        "orbit_determination_date": "2018-11-12 07:23:31",
        "first_observation_date": "2018-11-04",
        "last_observation_date": "2018-11-12",
        "data_arc_in_days": 8,
        "observations_used": 31,
        "orbit_uncertainty": "8",
        "minimum_orbit_intersection": ".033794",
        "jupiter_tisserand_invariant": "4.104",
        "epoch_osculation": "2458428.5",
        "eccentricity": ".4074031704838825",
        "semi_major_axis": "1.70025958078325",
        "inclination": "1.955733369718061",
        "ascending_node_longitude": "85.15981015752256",
        "orbital_period": "809.7878809627448",
        "perihelion_distance": "1.007568436926557",
        "perihelion_argument": "282.9143093010193",
        "aphelion_distance": "2.392950724639943",
        "perihelion_time": "2458398.008629274120",
        "mean_anomaly": "13.55527011378157",
        "mean_motion": ".4445608639783561",
        "equinox": "J2000",
        "orbit_class": {
            "orbit_class_type": "APO",
            "orbit_class_description": "Near-Earth asteroid orbits which cross the Earth’s orbit similar to that of 1862 Apollo",
            "orbit_class_range": "a (semi-major axis) > 1.0 AU; q (perihelion) < 1.017 AU"
        }
    },
    "is_sentry_object": false
}